[{"OBJECT_NAME":"GEOSCAN 5 (RS92S5)","OBJECT_ID":"2025-155R","EPOCH":"2026-03-09T22:01:07.273920","MEAN_MOTION":15.30265233,"ECCENTRICITY":0.00070849,"INCLINATION":97.4462,"RA_OF_ASC_NODE":37.7456,"ARG_OF_PERICENTER":154.5846,"MEAN_ANOMALY":205.5745,"EPHEMERIS_TYPE":0,"CLASSIFICATION_TYPE":"U","NORAD_CAT_ID":64891,"ELEMENT_SET_NO":999,"REV_AT_EPOCH":6562,"BSTAR":0.00068639307,"MEAN_MOTION_DOT":0.00020065,"MEAN_MOTION_DDOT":0},{"OBJECT_NAME":"STARLINK-36414","OBJECT_ID":"2026-008Z","EPOCH":"2026-03-09T09:59:01.911840","MEAN_MOTION":15.27598994,"ECCENTRICITY":0.00033183,"INCLINATION":42.9999,"RA_OF_ASC_NODE":206.469,"ARG_OF_PERICENTER":287.4655,"MEAN_ANOMALY":72.5833,"EPHEMERIS_TYPE":0,"CLASSIFICATION_TYPE":"U","NORAD_CAT_ID":67468,"ELEMENT_SET_NO":999,"REV_AT_EPOCH":953,"BSTAR":0.0013841496,"MEAN_MOTION_DOT":0.00038049,"MEAN_MOTION_DDOT":0}]
